{
  "norad_id": 43566,
  "name": "GSAT0219 (GALILEO 23)",
  "history": [
    {
      "epoch": "2026-03-26T05:03:05.055552Z",
      "apogee_km": 23235.954333143,
      "perigee_km": 23208.097619765864,
      "latitude_deg": 1.695689124172255e-05,
      "longitude_deg": 84.60484202569526,
      "height_km": 23211.594047947514,
      "semi_major_axis_km": 29600.16297645443,
      "eccentricity": 0.00047055,
      "inclination_deg": 57.1986,
      "raan_deg": 344.0284,
      "arg_perigee_deg": 320.4446,
      "mean_anomaly_deg": 39.5555,
      "mean_motion_rev_day": 1.70475357
    }
  ]
}